[Satellite]
VERSION=1.1
NAME=PROGRESS-M 26M
NICKNAME=PROGRESS-M 26M
TLE1=1 40392U 15008A   15048.48047249 -.00003784  11964-4  00000+0 0  9995
TLE2=2 40392  51.6481 321.8961 0038398  90.8427  83.9130 16.22895362    04
